{"type": "FeatureCollection", "features": [ {"type": "Feature", "properties": {"norad_id": 38755, "name": "SPOT 6", "group": "resource", "lat": -54.827037696286155, "lon": -149.33730987520016, "alt_km": 705.2919305223268, "timestamp": "2025-12-03T10:52:57.106707+00:00", "meta": {"OBJECT_NAME": "SPOT 6", "OBJECT_ID": "2012-047A", "EPOCH": "2025-12-03T04:51:59.414400", "MEAN_MOTION": 14.58588102, "ECCENTRICITY": 0.0001036, "INCLINATION": 98.1585, "RA_OF_ASC_NODE": 42.1623, "ARG_OF_PERICENTER": 100.0661, "MEAN_ANOMALY": 260.0655, "EPHEMERIS_TYPE": 0, "CLASSIFICATION_TYPE": "U", "NORAD_CAT_ID": 38755, "ELEMENT_SET_NO": 999, "REV_AT_EPOCH": 70448, "BSTAR": 0.00013547, "MEAN_MOTION_DOT": 5.85e-06, "MEAN_MOTION_DDOT": 0}, "tle": {"line1": "1 38755U 12047A   25337.20277100  .00000585  00000+0  13547-3 0  9991", "line2": "2 38755  98.1585  42.1623 0001036 100.0661 260.0655 14.58588102704487"}}, "geometry": {"type": "Point", "coordinates": [-149.33730987520016, -54.827037696286155]}}, {"type": "Feature", "properties": {"norad_id": 39019, "name": "PLEIADES 1B", "group": "resource", "lat": 43.53045680046041, "lon": -121.89421696552412, "alt_km": 693.6742392263277, "timestamp": "2025-12-03T10:52:57.106717+00:00", "meta": {"OBJECT_NAME": "PLEIADES 1B", "OBJECT_ID": "2012-068A", "EPOCH": "2025-12-03T03:40:34.141152", "MEAN_MOTION": 14.58537231, "ECCENTRICITY": 0.0001256, "INCLINATION": 98.1807, "RA_OF_ASC_NODE": 49.9558, "ARG_OF_PERICENTER": 87.7449, "MEAN_ANOMALY": 272.3894, "EPHEMERIS_TYPE": 0, "CLASSIFICATION_TYPE": "U", "NORAD_CAT_ID": 39019, "ELEMENT_SET_NO": 999, "REV_AT_EPOCH": 69227, "BSTAR": 0.00013496, "MEAN_MOTION_DOT": 5.82e-06, "MEAN_MOTION_DDOT": 0}, "tle": {"line1": "1 39019U 12068A   25337.15317293  .00000582  00000+0  13496-3 0  9990", "line2": "2 39019  98.1807  49.9558 0001256  87.7449 272.3894 14.58537231692270"}}, "geometry": {"type": "Point", "coordinates": [-121.89421696552412, 43.53045680046041]}}, {"type": "Feature", "properties": {"norad_id": 39030, "name": "GOKTURK 2", "group": "resource", "lat": 26.771084727692784, "lon": 3.471906387197939, "alt_km": 643.0215947700435, "timestamp": "2025-12-03T10:52:57.106728+00:00", "meta": {"OBJECT_NAME": "GOKTURK 2", "OBJECT_ID": "2012-073A", "EPOCH": "2025-12-03T03:40:50.499264", "MEAN_MOTION": 14.75268987, "ECCENTRICITY": 8e-05, "INCLINATION": 97.6899, "RA_OF_ASC_NODE": 179.278, "ARG_OF_PERICENTER": 94.9767, "MEAN_ANOMALY": 265.1534, "EPHEMERIS_TYPE": 0, "CLASSIFICATION_TYPE": "U", "NORAD_CAT_ID": 39030, "ELEMENT_SET_NO": 999, "REV_AT_EPOCH": 69560, "BSTAR": 0.00013841, "MEAN_MOTION_DOT": 8.9e-06, "MEAN_MOTION_DDOT": 0}, "tle": {"line1": "1 39030U 12073A   25337.15336226  .00000890  00000+0  13841-3 0  9992", "line2": "2 39030  97.6899 179.2780 0000800  94.9767 265.1534 14.75268987695608"}}, "geometry": {"type": "Point", "coordinates": [3.471906387197939, 26.771084727692784]}}, {"type": "Feature", "properties": {"norad_id": 39084, "name": "LANDSAT 8", "group": "resource", "lat": -6.243240349221628, "lon": 46.568271469875924, "alt_km": 706.2833106869548, "timestamp": "2025-12-03T10:52:57.106738+00:00", "meta": {"OBJECT_NAME": "LANDSAT 8", "OBJECT_ID": "2013-008A", "EPOCH": "2025-12-03T04:19:09.079680", "MEAN_MOTION": 14.57124589, "ECCENTRICITY": 0.0001068, "INCLINATION": 98.2084, "RA_OF_ASC_NODE": 45.394, "ARG_OF_PERICENTER": 88.6757, "MEAN_ANOMALY": 271.4564, "EPHEMERIS_TYPE": 0, "CLASSIFICATION_TYPE": "U", "NORAD_CAT_ID": 39084, "ELEMENT_SET_NO": 999, "REV_AT_EPOCH": 66935, "BSTAR": 0.00014359, "MEAN_MOTION_DOT": 6.02e-06, "MEAN_MOTION_DDOT": 0}, "tle": {"line1": "1 39084U 13008A   25337.17996620  .00000602  00000+0  14359-3 0  9998", "line2": "2 39084  98.2084  45.3940 0001068  88.6757 271.4564 14.57124589669352"}}, "geometry": {"type": "Point", "coordinates": [46.568271469875924, -6.243240349221628]}}, {"type": "Feature", "properties": {"norad_id": 39086, "name": "SARAL", "group": "resource", "lat": 70.34539652927181, "lon": 136.59129713858226, "alt_km": 774.6142404980319, "timestamp": "2025-12-03T10:52:57.106749+00:00", "meta": {"OBJECT_NAME": "SARAL", "OBJECT_ID": "2013-009A", "EPOCH": "2025-12-03T03:50:32.530272", "MEAN_MOTION": 14.32751461, "ECCENTRICITY": 0.0002617, "INCLINATION": 98.5507, "RA_OF_ASC_NODE": 161.2154, "ARG_OF_PERICENTER": 127.1282, "MEAN_ANOMALY": 233.0142, "EPHEMERIS_TYPE": 0, "CLASSIFICATION_TYPE": "U", "NORAD_CAT_ID": 39086, "ELEMENT_SET_NO": 999, "REV_AT_EPOCH": 66753, "BSTAR": 8.7071e-05, "MEAN_MOTION_DOT": 1.93e-06, "MEAN_MOTION_DDOT": 0}, "tle": {"line1": "1 39086U 13009A   25337.16009873  .00000193  00000+0  87071-4 0  9992", "line2": "2 39086  98.5507 161.2154 0002617 127.1282 233.0142 14.32751461667537"}}, "geometry": {"type": "Point", "coordinates": [136.59129713858226, 70.34539652927181]}}, {"type": "Feature", "properties": {"norad_id": 39150, "name": "GAOFEN-1", "group": "resource", "lat": -9.383390747409363, "lon": -133.04413004220388, "alt_km": 632.6986261950233, "timestamp": "2025-12-03T10:52:57.106760+00:00", "meta": {"OBJECT_NAME": "GAOFEN-1", "OBJECT_ID": "2013-018A", "EPOCH": "2025-12-03T05:08:55.110336", "MEAN_MOTION": 14.76505652, "ECCENTRICITY": 0.0017633, "INCLINATION": 97.9339, "RA_OF_ASC_NODE": 48.0417, "ARG_OF_PERICENTER": 172.9401, "MEAN_ANOMALY": 187.2061, "EPHEMERIS_TYPE": 0, "CLASSIFICATION_TYPE": "U", "NORAD_CAT_ID": 39150, "ELEMENT_SET_NO": 999, "REV_AT_EPOCH": 67932, "BSTAR": 0.00017153, "MEAN_MOTION_DOT": 1.147e-05, "MEAN_MOTION_DDOT": 0}, "tle": {"line1": "1 39150U 13018A   25337.21452674  .00001147  00000+0  17153-3 0  9994", "line2": "2 39150  97.9339  48.0417 0017633 172.9401 187.2061 14.76505652679321"}}, "geometry": {"type": "Point", "coordinates": [-133.04413004220388, -9.383390747409363]}}, {"type": "Feature", "properties": {"norad_id": 39160, "name": "VNREDSAT 1", "group": "resource", "lat": -77.77433664698745, "lon": 73.14511720767068, "alt_km": 685.6632820032664, "timestamp": "2025-12-03T10:52:57.106770+00:00", "meta": {"OBJECT_NAME": "VNREDSAT 1", "OBJECT_ID": "2013-021B", "EPOCH": "2025-12-03T04:41:35.227968", "MEAN_MOTION": 14.64898703, "ECCENTRICITY": 0.0001367, "INCLINATION": 97.9387, "RA_OF_ASC_NODE": 32.8045, "ARG_OF_PERICENTER": 83.8574, "MEAN_ANOMALY": 276.2785, "EPHEMERIS_TYPE": 0, "CLASSIFICATION_TYPE": "U", "NORAD_CAT_ID": 39160, "ELEMENT_SET_NO": 999, "REV_AT_EPOCH": 67159, "BSTAR": 0.00019524, "MEAN_MOTION_DOT": 9.98e-06, "MEAN_MOTION_DDOT": 0}, "tle": {"line1": "1 39160U 13021B   25337.19554662  .00000998  00000+0  19524-3 0  9993", "line2": "2 39160  97.9387  32.8045 0001367  83.8574 276.2785 14.64898703671593"}}, "geometry": {"type": "Point", "coordinates": [73.14511720767068, -77.77433664698745]}}, {"type": "Feature", "properties": {"norad_id": 39227, "name": "ARIRANG-5 (KOMPSAT-5)", "group": "resource", "lat": 62.747744397116065, "lon": -3.0540488697313704, "alt_km": 544.4873089635894, "timestamp": "2025-12-03T10:52:57.106786+00:00", "meta": {"OBJECT_NAME": "ARIRANG-5 (KOMPSAT-5)", "OBJECT_ID": "2013-042A", "EPOCH": "2025-12-03T03:59:00.098304", "MEAN_MOTION": 15.04500784, "ECCENTRICITY": 0.0004298, "INCLINATION": 97.6158, "RA_OF_ASC_NODE": 161.6065, "ARG_OF_PERICENTER": 82.5542, "MEAN_ANOMALY": 277.6172, "EPHEMERIS_TYPE": 0, "CLASSIFICATION_TYPE": "U", "NORAD_CAT_ID": 39227, "ELEMENT_SET_NO": 999, "REV_AT_EPOCH": 67438, "BSTAR": 0.0001561, "MEAN_MOTION_DOT": 2.125e-05, "MEAN_MOTION_DDOT": 0}, "tle": {"line1": "1 39227U 13042A   25337.16597336  .00002125  00000+0  15610-3 0  9998", "line2": "2 39227  97.6158 161.6065 0004298  82.5542 277.6172 15.04500784674389"}}, "geometry": {"type": "Point", "coordinates": [-3.0540488697313704, 62.747744397116065]}}, {"type": "Feature", "properties": {"norad_id": 39418, "name": "SKYSAT-A", "group": "resource", "lat": -72.66041889860429, "lon": -176.7001512678131, "alt_km": 525.4420251353049, "timestamp": "2025-12-03T10:52:57.106797+00:00", "meta": {"OBJECT_NAME": "SKYSAT-A", "OBJECT_ID": "2013-066C", "EPOCH": "2025-12-03T03:24:15.349248", "MEAN_MOTION": 15.11489448, "ECCENTRICITY": 0.0020442, "INCLINATION": 97.4128, "RA_OF_ASC_NODE": 27.6425, "ARG_OF_PERICENTER": 272.095, "MEAN_ANOMALY": 87.7939, "EPHEMERIS_TYPE": 0, "CLASSIFICATION_TYPE": "U", "NORAD_CAT_ID": 39418, "ELEMENT_SET_NO": 999, "REV_AT_EPOCH": 65885, "BSTAR": 0.0003027, "MEAN_MOTION_DOT": 5.085e-05, "MEAN_MOTION_DDOT": 0}, "tle": {"line1": "1 39418U 13066C   25337.14184432  .00005085  00000+0  30270-3 0  9990", "line2": "2 39418  97.4128  27.6425 0020442 272.0950  87.7939 15.11489448658851"}}, "geometry": {"type": "Point", "coordinates": [-176.7001512678131, -72.66041889860429]}}, {"type": "Feature", "properties": {"norad_id": 39419, "name": "DUBAISAT-2", "group": "resource", "lat": 34.2109051802928, "lon": 153.2490605048092, "alt_km": 546.3871894934509, "timestamp": "2025-12-03T10:52:57.106807+00:00", "meta": {"OBJECT_NAME": "DUBAISAT-2", "OBJECT_ID": "2013-066D", "EPOCH": "2025-12-03T05:27:48.612672", "MEAN_MOTION": 15.08208547, "ECCENTRICITY": 0.0011507, "INCLINATION": 97.4441, "RA_OF_ASC_NODE": 327.9303, "ARG_OF_PERICENTER": 356.6535, "MEAN_ANOMALY": 3.4614, "EPHEMERIS_TYPE": 0, "CLASSIFICATION_TYPE": "U", "NORAD_CAT_ID": 39419, "ELEMENT_SET_NO": 999, "REV_AT_EPOCH": 65683, "BSTAR": 0.00041274, "MEAN_MOTION_DOT": 6.335e-05, "MEAN_MOTION_DDOT": 0}, "tle": {"line1": "1 39419U 13066D   25337.22764598  .00006335  00000+0  41274-3 0  9992", "line2": "2 39419  97.4441 327.9303 0011507 356.6535   3.4614 15.08208547656837"}}, "geometry": {"type": "Point", "coordinates": [153.2490605048092, 34.2109051802928]}}]}